NORAD_CAT_ID,OBJECT_NAME,OBJECT_TYPE,EPOCH,MEAN_MOTION,ECCENTRICITY,INCLINATION,RA_OF_ASC_NODE,ARG_OF_PERICENTER,MEAN_ANOMALY,BSTAR,MEAN_MOTION_DOT,MEAN_MOTION_DDOT,TLE_LINE0,TLE_LINE1,TLE_LINE2,SEMIMAJOR_AXIS,PERIOD,APOGEE,PERIGEE,DECAYED
55921.0,STARLINK-5861,PAYLOAD,2024-02-20 03:28:45,14.98319995,0.0002954,70.0009,31.7525,268.7218,91.3603,-0.00011849,-1.506e-05,0.0,0 STARLINK-5861,1 55921U 23037H   24051.14496946 -.00001506  00000-0 -11849-3 0  9992,2 55921  70.0009  31.7525 0002954 268.7218  91.3603 14.98319995 51700,6950.224,96.108,574.142,570.036,0.0
55921.0,STARLINK-5861,PAYLOAD,2024-02-20 08:17:08,14.98327392,0.0002868,70.0013,31.2476,267.1384,92.9447,6.9575e-06,-1e-07,0.0,0 STARLINK-5861,1 55921U 23037H   24051.34524178 -.00000010  00000-0  69575-5 0  9992,2 55921  70.0013  31.2476 0002868 267.1384  92.9447 14.98327392 51732,6950.201,96.107,574.059,570.073,0.0
55921.0,STARLINK-5861,PAYLOAD,2024-02-20 22:42:21,14.98329762,0.0002837,70.0008,29.734,273.7493,86.3341,3.5216e-05,3.27e-06,0.0,0 STARLINK-5861,1 55921U 23037H   24051.94607979  .00000327  00000-0  35216-4 0  9993,2 55921  70.0008  29.7340 0002837 273.7493  86.3341 14.98329762 51483,6950.194,96.107,574.03,570.087,0.0
55921.0,STARLINK-5861,PAYLOAD,2024-02-21 08:19:09,14.98330842,0.0002862,70.0011,28.7228,269.0307,91.0525,8.7062e-05,9.46e-06,0.0,0 STARLINK-5861,1 55921U 23037H   24052.34663735  .00000946  00000-0  87062-4 0  9993,2 55921  70.0011  28.7228 0002862 269.0307  91.0525 14.98330842 51883,6950.19,96.107,574.044,570.066,0.0
55921.0,STARLINK-5861,PAYLOAD,2024-02-21 22:44:22,14.98326849,0.000294,70.0012,27.2095,269.298,90.7842,8.9423e-05,9.74e-06,0.0,0 STARLINK-5861,1 55921U 23037H   24052.94747928  .00000974  00000-0  89423-4 0  9990,2 55921  70.0012  27.2095 0002940 269.2980  90.7842 14.98326849 51639,6950.203,96.107,574.111,570.024,0.0
55921.0,STARLINK-5861,PAYLOAD,2024-02-22 08:21:10,14.9832639,0.0002846,70.0014,26.1997,267.6437,92.4396,9.8932e-05,1.088e-05,0.0,0 STARLINK-5861,1 55921U 23037H   24053.34804004  .00001088  00000-0  98932-4 0  9996,2 55921  70.0014  26.1997 0002846 267.6437  92.4396 14.98326390 52033,6950.204,96.107,574.047,570.091,0.0
55921.0,STARLINK-5861,PAYLOAD,2024-02-22 14:45:42,14.9833398,0.0003006,70.0013,25.5261,268.3757,91.7057,-3.5347e-05,-5.15e-06,0.0,0 STARLINK-5861,1 55921U 23037H   24053.61507805 -.00000515  00000-0 -35347-4 0  9992,2 55921  70.0013  25.5261 0003006 268.3757  91.7057 14.98333980 51736,6950.181,96.107,574.135,569.956,0.0
55921.0,STARLINK-5861,PAYLOAD,2024-02-22 22:46:22,14.98329289,0.0002993,70.0011,24.6838,270.6574,89.4242,0.00010416,1.15e-05,0.0,0 STARLINK-5861,1 55921U 23037H   24053.94887714  .00001150  00000-0  10416-3 0  9991,2 55921  70.0011  24.6838 0002993 270.6574  89.4242 14.98329289 51783,6950.195,96.107,574.14,569.98,0.0
55921.0,STARLINK-5861,PAYLOAD,2024-02-23 08:23:12,14.98260402,0.0002606,70.0012,23.6745,276.3205,83.7658,0.0014235,0.00016902,0.0,0 STARLINK-5861,1 55921U 23037H   24054.34945136  .00016902  00000-0  14235-2 0  9992,2 55921  70.0012  23.6745 0002606 276.3205  83.7658 14.98260402 52189,6950.408,96.111,574.084,570.462,0.0
55921.0,STARLINK-5861,PAYLOAD,2024-02-23 22:48:23,14.98328231,0.0002346,70.0024,22.1596,252.5183,107.572,4.3095e-05,4.21e-06,0.0,0 STARLINK-5861,1 55921U 23037H   24054.95027716  .00000421  00000-0  43095-4 0  9991,2 55921  70.0024  22.1596 0002346 252.5183 107.5720 14.98328231 51934,6950.198,96.107,573.694,570.433,0.0
55921.0,STARLINK-5861,PAYLOAD,2024-02-24 03:36:48,14.98326099,0.0002645,70.002,21.6553,261.7277,98.3582,1.8235e-05,1.25e-06,0.0,0 STARLINK-5861,1 55921U 23037H   24055.15055937  .00000125  00000-0  18235-4 0  9999,2 55921  70.0020  21.6553 0002645 261.7277  98.3582 14.98326099 52300,6950.205,96.107,573.908,570.232,0.0
55921.0,STARLINK-5861,PAYLOAD,2024-02-24 08:25:12,14.98328425,0.0002867,70.0014,21.1491,271.3578,88.7253,-4.356e-06,-1.45e-06,0.0,0 STARLINK-5861,1 55921U 23037H   24055.35083946 -.00000145  00000-0 -43560-5 0  9996,2 55921  70.0014  21.1491 0002867 271.3578  88.7253 14.98328425 51993,6950.198,96.107,574.055,570.07,0.0
55921.0,STARLINK-5861,PAYLOAD,2024-02-24 14:49:44,14.98332092,0.0002951,70.0014,20.4756,272.5564,87.5257,-8.1756e-06,-1.91e-06,0.0,0 STARLINK-5861,1 55921U 23037H   24055.61787702 -.00000191  00000-0 -81756-5 0  9996,2 55921  70.0014  20.4756 0002951 272.5564  87.5257 14.98332092 52033,6950.186,96.107,574.102,570.0,0.0
55921.0,STARLINK-5861,PAYLOAD,2024-02-25 05:14:56,14.98335261,0.0002806,70.0014,18.9606,266.284,93.7998,3.4194e-05,3.15e-06,0.0,0 STARLINK-5861,1 55921U 23037H   24056.21871241  .00000315  00000-0  34194-4 0  9994,2 55921  70.0014  18.9606 0002806 266.2840  93.7998 14.98335261 52464,6950.177,96.107,573.992,570.091,0.0
55921.0,STARLINK-5861,PAYLOAD,2024-02-25 06:51:04,14.98336523,0.0002828,70.0017,18.7927,269.5895,90.494,6.7039e-05,7.07e-06,0.0,0 STARLINK-5861,1 55921U 23037H   24056.28547084  .00000707  00000-0  67039-4 0  9995,2 55921  70.0017  18.7927 0002828 269.5895  90.4940 14.98336523 52138,6950.173,96.107,574.003,570.072,0.0
55921.0,STARLINK-5861,PAYLOAD,2024-02-25 14:51:45,14.98319331,0.0002867,70.0023,17.9508,280.6184,79.4652,0.00023719,2.737e-05,0.0,0 STARLINK-5861,1 55921U 23037H   24056.61927931  .00002737  00000-0  23719-3 0  9996,2 55921  70.0023  17.9508 0002867 280.6184  79.4652 14.98319331 52527,6950.226,96.108,574.084,570.098,0.0
55921.0,STARLINK-5861,PAYLOAD,2024-02-25 22:52:25,14.98327866,0.0002706,70.0022,17.1091,268.9988,91.0861,8.1451e-05,8.79e-06,0.0,0 STARLINK-5861,1 55921U 23037H   24056.95307422  .00000879  00000-0  81451-4 0  9993,2 55921  70.0022  17.1091 0002706 268.9988  91.0861 14.98327866 52230,6950.199,96.107,573.945,570.184,0.0
55921.0,STARLINK-5861,PAYLOAD,2024-02-26 03:40:49,14.9833232,0.0002884,70.0009,16.603,268.1369,91.9459,5.2659e-05,5.35e-06,0.0,0 STARLINK-5861,1 55921U 23037H   24057.15335191  .00000535  00000-0  52659-4 0  9997,2 55921  70.0009  16.6030 0002884 268.1369  91.9459 14.98332320 52608,6950.186,96.107,574.055,570.046,0.0
55921.0,STARLINK-5861,PAYLOAD,2024-02-26 06:53:05,14.98333078,0.0002899,70.0015,16.2668,271.4563,88.6264,0.00010042,1.106e-05,0.0,0 STARLINK-5861,1 55921U 23037H   24057.28687022  .00001106  00000-0  10042-3 0  9998,2 55921  70.0015  16.2668 0002899 271.4563  88.6264 14.98333078 52289,6950.183,96.107,574.063,570.034,0.0
55921.0,STARLINK-5861,PAYLOAD,2024-02-26 22:54:26,14.98328274,0.0002735,70.0022,14.5864,270.1803,89.9043,-5.4839e-05,-7.47e-06,0.0,0 STARLINK-5861,1 55921U 23037H   24057.95447762 -.00000747  00000-0 -54839-4 0  9992,2 55921  70.0022  14.5864 0002735 270.1803  89.9043 14.98328274 52380,6950.198,96.107,573.964,570.162,0.0
55921.0,STARLINK-5861,PAYLOAD,2024-02-27 03:42:51,14.98331701,0.0003211,70.0008,14.0809,268.3091,91.7701,-0.00013546,-1.709e-05,0.0,0 STARLINK-5861,1 55921U 23037H   24058.15475747 -.00001709  00000-0 -13546-3 0  9997,2 55921  70.0008  14.0809 0003211 268.3091  91.7701 14.98331701 52758,6950.188,96.107,574.284,569.821,0.0
55921.0,STARLINK-5861,PAYLOAD,2024-02-27 06:55:07,14.98332887,0.0003095,70.0011,13.7452,267.39,92.6904,-0.00011172,-1.426e-05,0.0,0 STARLINK-5861,1 55921U 23037H   24058.28827596 -.00001426  00000-0 -11172-3 0  9993,2 55921  70.0011  13.7452 0003095 267.3900  92.6904 14.98332887 52436,6950.184,96.107,574.2,569.898,0.0
55921.0,STARLINK-5861,PAYLOAD,2024-02-27 22:56:27,14.98330516,0.0003058,70.0011,12.0605,269.0559,91.025,3.3506e-05,3.07e-06,0.0,0 STARLINK-5861,1 55921U 23037H   24058.95587321  .00000307  00000-0  33506-4 0  9997,2 55921  70.0011  12.0605 0003058 269.0559  91.0250 14.98330516 52531,6950.191,96.107,574.182,569.931,0.0
55921.0,STARLINK-5861,PAYLOAD,2024-02-28 03:44:51,14.98309638,0.0002709,70.0018,11.556,267.9853,92.0996,0.00045246,5.307e-05,0.0,0 STARLINK-5861,1 55921U 23037H   24059.15615508  .00005307  00000-0  45246-3 0  9997,2 55921  70.0018  11.5560 0002709 267.9853  92.0996 14.98309638 52908,6950.256,96.108,574.004,570.238,0.0
55921.0,STARLINK-5861,PAYLOAD,2024-02-28 06:57:07,14.98335941,0.0002831,70.0018,11.2192,269.3586,90.7248,4.9725e-05,5e-06,0.0,0 STARLINK-5861,1 55921U 23037H   24059.28966910  .00000500  00000-0  49725-4 0  9994,2 55921  70.0018  11.2192 0002831 269.3586  90.7248 14.98335941 52924,6950.175,96.107,574.007,570.072,0.0
55921.0,STARLINK-5861,PAYLOAD,2024-02-28 13:21:39,14.98334035,0.0002978,70.0014,10.5451,272.0796,88.0022,-4.5023e-05,-6.3e-06,0.0,0 STARLINK-5861,1 55921U 23037H   24059.55671217 -.00000630  00000-0 -45023-4 0  9990,2 55921  70.0014  10.5451 0002978 272.0796  88.0022 14.98334035 52626,6950.18,96.107,574.115,569.976,0.0
55921.0,STARLINK-5861,PAYLOAD,2024-02-28 22:58:28,14.98321682,0.0002718,70.002,9.536,270.1797,89.9051,2.777e-05,2.38e-06,0.0,0 STARLINK-5861,1 55921U 23037H   24059.95727949  .00000238  00000-0  27770-4 0  9999,2 55921  70.0020   9.5360 0002718 270.1797  89.9051 14.98321682 52684,6950.219,96.108,573.973,570.195,0.0
55921.0,STARLINK-5861,PAYLOAD,2024-02-29 03:46:53,14.98322764,0.0002698,70.002,9.0311,270.0044,90.0806,3.795e-05,3.6e-06,0.0,0 STARLINK-5861,1 55921U 23037H   24060.15755945  .00000360  00000-0  37950-4 0  9997,2 55921  70.0020   9.0311 0002698 270.0044  90.0806 14.98322764 53051,6950.215,96.107,573.955,570.205,0.0
55921.0,STARLINK-5861,PAYLOAD,2024-02-29 13:23:41,14.9832678,0.000267,70.0023,8.0211,271.4367,88.6486,5.5258e-06,-2.7e-07,0.0,0 STARLINK-5861,1 55921U 23037H   24060.55811916 -.00000027  00000-0  55258-5 0  9995,2 55921  70.0023   8.0211 0002670 271.4367  88.6486 14.98326780 52772,6950.203,96.107,573.924,570.212,0.0
55921.0,STARLINK-5861,PAYLOAD,2024-02-29 21:24:21,14.98333341,0.0002711,70.002,7.1793,271.3717,88.7132,6.6451e-06,-1.4e-07,0.0,0 STARLINK-5861,1 55921U 23037H   24060.89191493 -.00000014  00000-0  66451-5 0  9996,2 55921  70.0020   7.1793 0002711 271.3717  88.7132 14.98333341 53162,6950.183,96.107,573.932,570.163,0.0
